start=new Date('2022-11-08T00:00:00.000Z').valueOf();
sats=[{"GP_ID":"217109064","ELEMENT_SET_NO":"999","APOAPSIS":"541.370","LAUNCH_DATE":"2022-05-18","PERIAPSIS":"538.199","MEAN_MOTION":"15.08827090","CENTER_NAME":"EARTH","FILE":"3648233","ARG_OF_PERICENTER":"33.7565","EPHEMERIS_TYPE":"0","OBJECT_ID":"2022-053BD","REV_AT_EPOCH":"2750","TIME_SYSTEM":"UTC","RA_OF_ASC_NODE":"201.8251","COUNTRY_CODE":"US","PERIOD":"95.438","NORAD_CAT_ID":"52707","CLASSIFICATION_TYPE":"U","MEAN_MOTION_DOT":"0.00005766","MEAN_MOTION_DDOT":"0.0000000000000","OBJECT_NAME":"STARLINK-4007","SITE":"AFETR","MEAN_ANOMALY":"326.3573","INCLINATION":"53.2177","TLE_LINE2":"2 52707  53.2177 201.8251 0002292  33.7565 326.3573 15.08827090 27504","MEAN_ELEMENT_THEORY":"SGP4","TLE_LINE1":"1 52707U 22053BD  22311.71573518  .00005766  00000-0  38020-3 0  9999","SEMIMAJOR_AXIS":"6917.920","RCS_SIZE":"LARGE","ECCENTRICITY":"0.00022920","BSTAR":"0.00038020000000","OBJECT_TYPE":"PAYLOAD","EPOCH":"2022-11-07T17:10:39.519552","REF_FRAME":"TEME","DECAY_DATE":null},{"COUNTRY_CODE":"US","RA_OF_ASC_NODE":"201.3669","TIME_SYSTEM":"UTC","REV_AT_EPOCH":"2766","OBJECT_ID":"2022-053BE","EPHEMERIS_TYPE":"0","ARG_OF_PERICENTER":"29.4793","FILE":"3648233","PERIAPSIS":"537.620","MEAN_MOTION":"15.08839268","CENTER_NAME":"EARTH","LAUNCH_DATE":"2022-05-18","APOAPSIS":"541.876","GP_ID":"217108299","ELEMENT_SET_NO":"999","EPOCH":"2022-11-07T19:33:45.662976","REF_FRAME":"TEME","DECAY_DATE":null,"OBJECT_TYPE":"PAYLOAD","BSTAR":"0.00061269000000","TLE_LINE1":"1 52708U 22053BE  22311.81511184  .00009476  00000-0  61269-3 0  9995","ECCENTRICITY":"0.00030760","RCS_SIZE":"LARGE","SEMIMAJOR_AXIS":"6917.883","MEAN_ELEMENT_THEORY":"SGP4","TLE_LINE2":"2 52708  53.2182 201.3669 0003076  29.4793 330.6372 15.08839268 27667","MEAN_ANOMALY":"330.6372","INCLINATION":"53.2182","SITE":"AFETR","MEAN_MOTION_DDOT":"0.0000000000000","OBJECT_NAME":"STARLINK-3962","CLASSIFICATION_TYPE":"U","NORAD_CAT_ID":"52708","MEAN_MOTION_DOT":"0.00009476","PERIOD":"95.438"},{"APOAPSIS":"540.798","ELEMENT_SET_NO":"999","GP_ID":"217108484","LAUNCH_DATE":"2022-06-17","FILE":"3648233","CENTER_NAME":"EARTH","PERIAPSIS":"538.692","MEAN_MOTION":"15.08840076","ARG_OF_PERICENTER":"50.4942","EPHEMERIS_TYPE":"0","OBJECT_ID":"2022-062A","TIME_SYSTEM":"UTC","RA_OF_ASC_NODE":"101.3887","REV_AT_EPOCH":"2192","COUNTRY_CODE":"US","MEAN_MOTION_DOT":"0.00001947","CLASSIFICATION_TYPE":"U","NORAD_CAT_ID":"52830","PERIOD":"95.438","OBJECT_NAME":"STARLINK-4091","MEAN_MOTION_DDOT":"0.0000000000000","SITE":"AFETR","INCLINATION":"53.2164","MEAN_ANOMALY":"309.6185","TLE_LINE2":"2 52830  53.2164 101.3887 0001522  50.4942 309.6185 15.08840076 21928","TLE_LINE1":"1 52830U 22062A   22311.80862312  .00001947  00000-0  14037-3 0  9998","RCS_SIZE":"LARGE","SEMIMAJOR_AXIS":"6917.880","ECCENTRICITY":"0.00015220","MEAN_ELEMENT_THEORY":"SGP4","DECAY_DATE":null,"EPOCH":"2022-11-07T19:24:25.037568","REF_FRAME":"TEME","BSTAR":"0.00014037000000","OBJECT_TYPE":"PAYLOAD"},{"ARG_OF_PERICENTER":"68.4093","CENTER_NAME":"EARTH","MEAN_MOTION":"15.08841539","PERIAPSIS":"538.667","FILE":"3648233","LAUNCH_DATE":"2022-06-17","ELEMENT_SET_NO":"999","GP_ID":"217108138","APOAPSIS":"540.814","COUNTRY_CODE":"US","REV_AT_EPOCH":"2192","RA_OF_ASC_NODE":"101.3432","TIME_SYSTEM":"UTC","OBJECT_ID":"2022-062B","EPHEMERIS_TYPE":"0","SITE":"AFETR","MEAN_MOTION_DDOT":"0.0000000000000","OBJECT_NAME":"STARLINK-4089","PERIOD":"95.437","MEAN_MOTION_DOT":"0.00004233","CLASSIFICATION_TYPE":"U","NORAD_CAT_ID":"52831","BSTAR":"0.00028385000000","OBJECT_TYPE":"PAYLOAD","DECAY_DATE":null,"REF_FRAME":"TEME","EPOCH":"2022-11-07T19:40:18.814944","MEAN_ELEMENT_THEORY":"SGP4","TLE_LINE1":"1 52831U 22062B   22311.81966221  .00004233  00000-0  28385-3 0  9996","RCS_SIZE":"LARGE","SEMIMAJOR_AXIS":"6917.876","ECCENTRICITY":"0.00015520","TLE_LINE2":"2 52831  53.2149 101.3432 0001552  68.4093 291.7065 15.08841539 21920","INCLINATION":"53.2149","MEAN_ANOMALY":"291.7065"},{"BSTAR":"0.00018279000000","OBJECT_TYPE":"PAYLOAD","EPOCH":"2022-11-07T19:35:00.106944","REF_FRAME":"TEME","DECAY_DATE":null,"MEAN_ELEMENT_THEORY":"SGP4","RCS_SIZE":"LARGE","TLE_LINE1":"1 52832U 22062C   22311.81597346  .00002623  00000-0  18279-3 0  9997","ECCENTRICITY":"0.00018670","SEMIMAJOR_AXIS":"6917.858","TLE_LINE2":"2 52832  53.2175 101.3610 0001867  51.1737 308.9422 15.08847268 21924","MEAN_ANOMALY":"308.9422","INCLINATION":"53.2175","SITE":"AFETR","OBJECT_NAME":"STARLINK-4083","MEAN_MOTION_DDOT":"0.0000000000000","PERIOD":"95.437","CLASSIFICATION_TYPE":"U","NORAD_CAT_ID":"52832","MEAN_MOTION_DOT":"0.00002623","COUNTRY_CODE":"US","REV_AT_EPOCH":"2192","RA_OF_ASC_NODE":"101.3610","TIME_SYSTEM":"UTC","OBJECT_ID":"2022-062C","EPHEMERIS_TYPE":"0","ARG_OF_PERICENTER":"51.1737","MEAN_MOTION":"15.08847268","PERIAPSIS":"538.432","CENTER_NAME":"EARTH","FILE":"3648233","LAUNCH_DATE":"2022-06-17","GP_ID":"217109350","ELEMENT_SET_NO":"999","APOAPSIS":"541.015"},{"MEAN_MOTION_DDOT":"0.0000000000000","OBJECT_NAME":"STARLINK-4086","PERIOD":"95.438","MEAN_MOTION_DOT":"0.00002036","CLASSIFICATION_TYPE":"U","NORAD_CAT_ID":"52833","SITE":"AFETR","TLE_LINE2":"2 52833  53.2169 101.9659 0001249  63.3439 296.7681 15.08831607 21904","INCLINATION":"53.2169","MEAN_ANOMALY":"296.7681","OBJECT_TYPE":"PAYLOAD","BSTAR":"0.00014601000000","DECAY_DATE":null,"EPOCH":"2022-11-07T16:18:56.773728","REF_FRAME":"TEME","MEAN_ELEMENT_THEORY":"SGP4","TLE_LINE1":"1 52833U 22062D   22311.67982377  .00002036  00000-0  14601-3 0  9997","RCS_SIZE":"LARGE","SEMIMAJOR_AXIS":"6917.906","ECCENTRICITY":"0.00012490","LAUNCH_DATE":"2022-06-17","ELEMENT_SET_NO":"999","GP_ID":"217108728","APOAPSIS":"540.635","ARG_OF_PERICENTER":"63.3439","CENTER_NAME":"EARTH","MEAN_MOTION":"15.08831607","PERIAPSIS":"538.907","FILE":"3648233","OBJECT_ID":"2022-062D","EPHEMERIS_TYPE":"0","COUNTRY_CODE":"US","REV_AT_EPOCH":"2190","RA_OF_ASC_NODE":"101.9659","TIME_SYSTEM":"UTC"},{"TLE_LINE2":"2 52834  53.2173 101.4112 0001457  59.0187 301.0948 15.08832423 21927","INCLINATION":"53.2173","MEAN_ANOMALY":"301.0948","BSTAR":"0.00020960000000","OBJECT_TYPE":"PAYLOAD","DECAY_DATE":null,"EPOCH":"2022-11-07T19:19:07.002624","REF_FRAME":"TEME","MEAN_ELEMENT_THEORY":"SGP4","RCS_SIZE":"LARGE","TLE_LINE1":"1 52834U 22062E   22311.80494216  .00003049  00000-0  20960-3 0  9993","ECCENTRICITY":"0.00014570","SEMIMAJOR_AXIS":"6917.904","MEAN_MOTION_DDOT":"0.0000000000000","OBJECT_NAME":"STARLINK-4108","PERIOD":"95.438","MEAN_MOTION_DOT":"0.00003049","NORAD_CAT_ID":"52834","CLASSIFICATION_TYPE":"U","SITE":"AFETR","OBJECT_ID":"2022-062E","EPHEMERIS_TYPE":"0","COUNTRY_CODE":"US","REV_AT_EPOCH":"2192","TIME_SYSTEM":"UTC","RA_OF_ASC_NODE":"101.4112","LAUNCH_DATE":"2022-06-17","ELEMENT_SET_NO":"999","GP_ID":"217108901","APOAPSIS":"540.776","ARG_OF_PERICENTER":"59.0187","CENTER_NAME":"EARTH","PERIAPSIS":"538.761","MEAN_MOTION":"15.08832423","FILE":"3648233"},{"EPHEMERIS_TYPE":"0","OBJECT_ID":"2022-062F","TIME_SYSTEM":"UTC","RA_OF_ASC_NODE":"101.4342","REV_AT_EPOCH":"2192","COUNTRY_CODE":"US","APOAPSIS":"541.156","ELEMENT_SET_NO":"999","GP_ID":"217108555","LAUNCH_DATE":"2022-06-17","FILE":"3648233","CENTER_NAME":"EARTH","PERIAPSIS":"538.338","MEAN_MOTION":"15.08839509","ARG_OF_PERICENTER":"41.8210","INCLINATION":"53.2148","MEAN_ANOMALY":"318.2938","TLE_LINE2":"2 52835  53.2148 101.4342 0002037  41.8210 318.2938 15.08839509 21927","SEMIMAJOR_AXIS":"6917.882","TLE_LINE1":"1 52835U 22062F   22311.80125732  .00001450  00000-0  10917-3 0  9993","RCS_SIZE":"LARGE","ECCENTRICITY":"0.00020370","MEAN_ELEMENT_THEORY":"SGP4","DECAY_DATE":null,"REF_FRAME":"TEME","EPOCH":"2022-11-07T19:13:48.632448","BSTAR":"0.00010917000000","OBJECT_TYPE":"PAYLOAD","MEAN_MOTION_DOT":"0.00001450","CLASSIFICATION_TYPE":"U","NORAD_CAT_ID":"52835","PERIOD":"95.438","OBJECT_NAME":"STARLINK-4080","MEAN_MOTION_DDOT":"0.0000000000000","SITE":"AFETR"},{"APOAPSIS":"540.813","ELEMENT_SET_NO":"999","GP_ID":"217109076","LAUNCH_DATE":"2022-06-17","FILE":"3648233","CENTER_NAME":"EARTH","PERIAPSIS":"538.685","MEAN_MOTION":"15.08838834","ARG_OF_PERICENTER":"62.3599","EPHEMERIS_TYPE":"0","OBJECT_ID":"2022-062G","TIME_SYSTEM":"UTC","RA_OF_ASC_NODE":"101.4562","REV_AT_EPOCH":"2192","COUNTRY_CODE":"US","MEAN_MOTION_DOT":"0.00003796","CLASSIFICATION_TYPE":"U","NORAD_CAT_ID":"52836","PERIOD":"95.438","MEAN_MOTION_DDOT":"0.0000000000000","OBJECT_NAME":"STARLINK-4043","SITE":"AFETR","INCLINATION":"53.2162","MEAN_ANOMALY":"297.7550","TLE_LINE2":"2 52836  53.2162 101.4562 0001538  62.3599 297.7550 15.08838834 21922","RCS_SIZE":"LARGE","TLE_LINE1":"1 52836U 22062G   22311.79758376  .00003796  00000-0  25645-3 0  9997","ECCENTRICITY":"0.00015380","SEMIMAJOR_AXIS":"6917.884","MEAN_ELEMENT_THEORY":"SGP4","DECAY_DATE":null,"REF_FRAME":"TEME","EPOCH":"2022-11-07T19:08:31.236864","BSTAR":"0.00025645000000","OBJECT_TYPE":"PAYLOAD"},{"SITE":"AFETR","OBJECT_NAME":"STARLINK-4036","MEAN_MOTION_DDOT":"0.0000000000000","NORAD_CAT_ID":"52837","CLASSIFICATION_TYPE":"U","MEAN_MOTION_DOT":"0.00000791","PERIOD":"95.438","REF_FRAME":"TEME","EPOCH":"2022-11-07T12:36:22.521024","DECAY_DATE":null,"OBJECT_TYPE":"PAYLOAD","BSTAR":"0.00006783000000","RCS_SIZE":"LARGE","TLE_LINE1":"1 52837U 22062H   22311.52526066  .00000791  00000-0  67830-4 0  9993","SEMIMAJOR_AXIS":"6917.919","ECCENTRICITY":"0.00020170","MEAN_ELEMENT_THEORY":"SGP4","TLE_LINE2":"2 52837  53.2174 102.6804 0002017  33.6771 326.4349 15.08827450 21887","MEAN_ANOMALY":"326.4349","INCLINATION":"53.2174","ARG_OF_PERICENTER":"33.6771","FILE":"3648233","PERIAPSIS":"538.388","MEAN_MOTION":"15.08827450","CENTER_NAME":"EARTH","LAUNCH_DATE":"2022-06-17","APOAPSIS":"541.179","GP_ID":"217108311","ELEMENT_SET_NO":"999","COUNTRY_CODE":"US","TIME_SYSTEM":"UTC","RA_OF_ASC_NODE":"102.6804","REV_AT_EPOCH":"2188","OBJECT_ID":"2022-062H","EPHEMERIS_TYPE":"0"}];
